[{"OBJECT_NAME":"STARLINK-30218","OBJECT_ID":"2023-119C","EPOCH":"2026-03-09T22:00:01.999584","MEAN_MOTION":15.18457139,"ECCENTRICITY":0.00017218,"INCLINATION":43.0002,"RA_OF_ASC_NODE":79.8846,"ARG_OF_PERICENTER":291.5867,"MEAN_ANOMALY":147.4307,"EPHEMERIS_TYPE":0,"CLASSIFICATION_TYPE":"U","NORAD_CAT_ID":57604,"ELEMENT_SET_NO":999,"REV_AT_EPOCH":567,"BSTAR":0.057976743,"MEAN_MOTION_DOT":0.01319901,"MEAN_MOTION_DDOT":0},{"OBJECT_NAME":"CZ-4B DEB","OBJECT_ID":"2025-115B","EPOCH":"2026-03-09T18:01:12.826560","MEAN_MOTION":15.38891594,"ECCENTRICITY":0.00333367,"INCLINATION":97.487,"RA_OF_ASC_NODE":148.3212,"ARG_OF_PERICENTER":280.8109,"MEAN_ANOMALY":78.9385,"EPHEMERIS_TYPE":0,"CLASSIFICATION_TYPE":"U","NORAD_CAT_ID":64200,"ELEMENT_SET_NO":999,"REV_AT_EPOCH":4325,"BSTAR":0.0021921784,"MEAN_MOTION_DOT":0.00086722,"MEAN_MOTION_DDOT":0}]
